start=new Date('2022-08-15T00:00:00.000Z').valueOf();
sats=[{"GP_ID":"210207541","COUNTRY_CODE":"US","ECCENTRICITY":"0.00015570","MEAN_ANOMALY":"294.5775","EPOCH":"2022-08-14T11:49:43.037472","APOAPSIS":"529.774","REV_AT_EPOCH":"8087","TLE_LINE1":"1 47779U 21017BK  22226.49285923 -.00000270  00000-0  16662-5 0  9997","PERIOD":"95.209","OBJECT_ID":"2021-017BK","REF_FRAME":"TEME","NORAD_CAT_ID":"47779","ELEMENT_SET_NO":"999","SEMIMAJOR_AXIS":"6906.834","INCLINATION":"53.0542","CENTER_NAME":"EARTH","BSTAR":"0.00000166620000","MEAN_MOTION_DDOT":"0.0000000000000","PERIAPSIS":"527.623","TLE_LINE2":"2 47779  53.0542 288.4046 0001557  65.5379 294.5775 15.12461294 80877","MEAN_ELEMENT_THEORY":"SGP4","MEAN_MOTION_DOT":"-0.00000270","OBJECT_NAME":"STARLINK-2212","LAUNCH_DATE":"2021-03-04","RCS_SIZE":"LARGE","CLASSIFICATION_TYPE":"U","FILE":"3536494","RA_OF_ASC_NODE":"288.4046","ARG_OF_PERICENTER":"65.5379","TIME_SYSTEM":"UTC","DECAY_DATE":null,"MEAN_MOTION":"15.12461294","EPHEMERIS_TYPE":"0","OBJECT_TYPE":"PAYLOAD","SITE":"AFETR"},{"INCLINATION":"53.0532","CENTER_NAME":"EARTH","SEMIMAJOR_AXIS":"6925.352","ELEMENT_SET_NO":"999","NORAD_CAT_ID":"47780","MEAN_MOTION_DDOT":"0.0000000000000","BSTAR":"0.00012230000000","REV_AT_EPOCH":"8139","APOAPSIS":"548.242","EPOCH":"2022-08-14T17:29:13.403904","MEAN_ANOMALY":"280.1483","ECCENTRICITY":"0.00014800","COUNTRY_CODE":"US","GP_ID":"210231631","REF_FRAME":"TEME","OBJECT_ID":"2021-017BL","PERIOD":"95.592","TLE_LINE1":"1 47780U 21017BL  22226.72862736  .00001541  00000-0  12230-3 0  9994","EPHEMERIS_TYPE":"0","MEAN_MOTION":"15.06398845","DECAY_DATE":null,"SITE":"AFETR","OBJECT_TYPE":"PAYLOAD","MEAN_MOTION_DOT":"0.00001541","OBJECT_NAME":"STARLINK-2213","MEAN_ELEMENT_THEORY":"SGP4","TLE_LINE2":"2 47780  53.0532 300.8276 0001480  79.9673 280.1483 15.06398845 81392","PERIAPSIS":"546.192","TIME_SYSTEM":"UTC","ARG_OF_PERICENTER":"79.9673","FILE":"3536615","RA_OF_ASC_NODE":"300.8276","CLASSIFICATION_TYPE":"U","LAUNCH_DATE":"2021-03-04","RCS_SIZE":"LARGE"},{"NORAD_CAT_ID":"47781","ELEMENT_SET_NO":"999","SEMIMAJOR_AXIS":"6925.319","INCLINATION":"53.0530","CENTER_NAME":"EARTH","BSTAR":"0.00022668000000","MEAN_MOTION_DDOT":"0.0000000000000","GP_ID":"210231880","COUNTRY_CODE":"US","ECCENTRICITY":"0.00015090","MEAN_ANOMALY":"275.7451","EPOCH":"2022-08-14T16:41:27.543552","APOAPSIS":"548.229","REV_AT_EPOCH":"8134","TLE_LINE1":"1 47781U 21017BM  22226.69545768  .00003097  00000-0  22668-3 0  9998","PERIOD":"95.592","OBJECT_ID":"2021-017BM","REF_FRAME":"TEME","MEAN_MOTION":"15.06409520","DECAY_DATE":null,"EPHEMERIS_TYPE":"0","OBJECT_TYPE":"PAYLOAD","SITE":"AFETR","PERIAPSIS":"546.139","MEAN_ELEMENT_THEORY":"SGP4","TLE_LINE2":"2 47781  53.0530 300.9769 0001509  84.3710 275.7451 15.06409520 81346","MEAN_MOTION_DOT":"0.00003097","OBJECT_NAME":"STARLINK-2223","RCS_SIZE":"LARGE","LAUNCH_DATE":"2021-03-04","CLASSIFICATION_TYPE":"U","ARG_OF_PERICENTER":"84.3710","FILE":"3536615","RA_OF_ASC_NODE":"300.9769","TIME_SYSTEM":"UTC"},{"OBJECT_TYPE":"PAYLOAD","SITE":"AFETR","EPHEMERIS_TYPE":"0","MEAN_MOTION":"15.06400678","DECAY_DATE":null,"RA_OF_ASC_NODE":"341.4972","FILE":"3536615","ARG_OF_PERICENTER":"81.9348","CLASSIFICATION_TYPE":"U","LAUNCH_DATE":"2021-03-11","RCS_SIZE":"LARGE","TIME_SYSTEM":"UTC","OBJECT_NAME":"STARLINK-2257","MEAN_MOTION_DOT":"0.00003230","TLE_LINE2":"2 47787  53.0548 341.4972 0001275  81.9348 278.1786 15.06400678 80181","MEAN_ELEMENT_THEORY":"SGP4","PERIAPSIS":"546.328","BSTAR":"0.00023566000000","MEAN_MOTION_DDOT":"0.0000000000000","NORAD_CAT_ID":"47787","INCLINATION":"53.0548","CENTER_NAME":"EARTH","SEMIMAJOR_AXIS":"6925.346","ELEMENT_SET_NO":"999","TLE_LINE1":"1 47787U 21018A   22226.58118728  .00003230  00000-0  23566-3 0  9992","REF_FRAME":"TEME","OBJECT_ID":"2021-018A","PERIOD":"95.592","ECCENTRICITY":"0.00012750","COUNTRY_CODE":"US","GP_ID":"210232130","APOAPSIS":"548.094","REV_AT_EPOCH":"8018","EPOCH":"2022-08-14T13:56:54.580992","MEAN_ANOMALY":"278.1786"},{"BSTAR":"0.00002983900000","MEAN_MOTION_DDOT":"0.0000000000000","NORAD_CAT_ID":"47788","ELEMENT_SET_NO":"999","SEMIMAJOR_AXIS":"6925.323","CENTER_NAME":"EARTH","INCLINATION":"53.0554","TLE_LINE1":"1 47788U 21018B   22226.52636205  .00000163  00000-0  29839-4 0  9994","PERIOD":"95.592","OBJECT_ID":"2021-018B","REF_FRAME":"TEME","GP_ID":"210200242","COUNTRY_CODE":"US","ECCENTRICITY":"0.00012060","MEAN_ANOMALY":"283.0190","EPOCH":"2022-08-14T12:37:57.681120","REV_AT_EPOCH":"8054","APOAPSIS":"548.023","SITE":"AFETR","OBJECT_TYPE":"PAYLOAD","DECAY_DATE":null,"MEAN_MOTION":"15.06408246","EPHEMERIS_TYPE":"0","RCS_SIZE":"LARGE","LAUNCH_DATE":"2021-03-11","CLASSIFICATION_TYPE":"U","FILE":"3536350","ARG_OF_PERICENTER":"77.0933","RA_OF_ASC_NODE":"316.7544","TIME_SYSTEM":"UTC","PERIAPSIS":"546.353","TLE_LINE2":"2 47788  53.0554 316.7544 0001206  77.0933 283.0190 15.06408246 80542","MEAN_ELEMENT_THEORY":"SGP4","MEAN_MOTION_DOT":"0.00000163","OBJECT_NAME":"STARLINK-2314"},{"TLE_LINE1":"1 47789U 21018C   22226.57566976 -.00000111  00000-0  11421-4 0  9999","REF_FRAME":"TEME","PERIOD":"95.593","OBJECT_ID":"2021-018C","COUNTRY_CODE":"US","ECCENTRICITY":"0.00012230","GP_ID":"210231131","REV_AT_EPOCH":"8047","APOAPSIS":"548.081","MEAN_ANOMALY":"266.0691","EPOCH":"2022-08-14T13:48:57.867264","BSTAR":"0.00001142100000","MEAN_MOTION_DDOT":"0.0000000000000","NORAD_CAT_ID":"47789","INCLINATION":"53.0552","CENTER_NAME":"EARTH","ELEMENT_SET_NO":"999","SEMIMAJOR_AXIS":"6925.369","CLASSIFICATION_TYPE":"U","ARG_OF_PERICENTER":"94.0438","FILE":"3536615","RA_OF_ASC_NODE":"321.5353","LAUNCH_DATE":"2021-03-11","RCS_SIZE":"LARGE","TIME_SYSTEM":"UTC","MEAN_ELEMENT_THEORY":"SGP4","TLE_LINE2":"2 47789  53.0552 321.5353 0001223  94.0438 266.0691 15.06393318 80473","MEAN_MOTION_DOT":"-0.00000111","OBJECT_NAME":"STARLINK-2315","PERIAPSIS":"546.387","SITE":"AFETR","OBJECT_TYPE":"PAYLOAD","DECAY_DATE":null,"MEAN_MOTION":"15.06393318","EPHEMERIS_TYPE":"0"},{"PERIAPSIS":"546.314","TLE_LINE2":"2 47790  53.0538 310.7512 0001312  86.3742 273.7396 15.06397152 80643","MEAN_ELEMENT_THEORY":"SGP4","MEAN_MOTION_DOT":"0.00001228","OBJECT_NAME":"STARLINK-2319","RCS_SIZE":"LARGE","LAUNCH_DATE":"2021-03-11","CLASSIFICATION_TYPE":"U","FILE":"3536615","RA_OF_ASC_NODE":"310.7512","ARG_OF_PERICENTER":"86.3742","TIME_SYSTEM":"UTC","DECAY_DATE":null,"MEAN_MOTION":"15.06397152","EPHEMERIS_TYPE":"0","OBJECT_TYPE":"PAYLOAD","SITE":"AFETR","GP_ID":"210232381","COUNTRY_CODE":"US","ECCENTRICITY":"0.00013120","MEAN_ANOMALY":"273.7396","EPOCH":"2022-08-14T17:59:45.096000","REV_AT_EPOCH":"8064","APOAPSIS":"548.131","TLE_LINE1":"1 47790U 21018D   22226.74982750  .00001228  00000-0  10133-3 0  9999","PERIOD":"95.592","OBJECT_ID":"2021-018D","REF_FRAME":"TEME","NORAD_CAT_ID":"47790","ELEMENT_SET_NO":"999","SEMIMAJOR_AXIS":"6925.357","INCLINATION":"53.0538","CENTER_NAME":"EARTH","BSTAR":"0.00010133000000","MEAN_MOTION_DDOT":"0.0000000000000"},{"MEAN_ANOMALY":"265.0603","EPOCH":"2022-08-14T15:16:32.635776","REV_AT_EPOCH":"8020","APOAPSIS":"548.245","GP_ID":"210232631","COUNTRY_CODE":"US","ECCENTRICITY":"0.00014250","PERIOD":"95.593","OBJECT_ID":"2021-018E","REF_FRAME":"TEME","TLE_LINE1":"1 47791U 21018E   22226.63648884  .00001115  00000-0  93789-4 0  9999","ELEMENT_SET_NO":"999","SEMIMAJOR_AXIS":"6925.393","CENTER_NAME":"EARTH","INCLINATION":"53.0550","NORAD_CAT_ID":"47791","MEAN_MOTION_DDOT":"0.0000000000000","BSTAR":"0.00009378900000","PERIAPSIS":"546.271","MEAN_ELEMENT_THEORY":"SGP4","TLE_LINE2":"2 47791  53.0550 341.2441 0001425  95.0549 265.0603 15.06385526 80204","OBJECT_NAME":"STARLINK-2322","MEAN_MOTION_DOT":"0.00001115","TIME_SYSTEM":"UTC","RCS_SIZE":"LARGE","LAUNCH_DATE":"2021-03-11","CLASSIFICATION_TYPE":"U","ARG_OF_PERICENTER":"95.0549","FILE":"3536615","RA_OF_ASC_NODE":"341.2441","DECAY_DATE":null,"MEAN_MOTION":"15.06385526","EPHEMERIS_TYPE":"0","SITE":"AFETR","OBJECT_TYPE":"PAYLOAD"},{"SITE":"AFETR","OBJECT_TYPE":"PAYLOAD","EPHEMERIS_TYPE":"0","MEAN_MOTION":"15.06398782","DECAY_DATE":null,"FILE":"3536615","ARG_OF_PERICENTER":"69.9685","RA_OF_ASC_NODE":"321.2036","CLASSIFICATION_TYPE":"U","RCS_SIZE":"LARGE","LAUNCH_DATE":"2021-03-11","TIME_SYSTEM":"UTC","OBJECT_NAME":"STARLINK-2334","MEAN_MOTION_DOT":"0.00000572","MEAN_ELEMENT_THEORY":"SGP4","TLE_LINE2":"2 47792  53.0556 321.2036 0001454  69.9685 290.1460 15.06398782 80480","PERIAPSIS":"546.210","BSTAR":"0.00005730400000","MEAN_MOTION_DDOT":"0.0000000000000","NORAD_CAT_ID":"47792","CENTER_NAME":"EARTH","INCLINATION":"53.0556","SEMIMAJOR_AXIS":"6925.352","ELEMENT_SET_NO":"999","TLE_LINE1":"1 47792U 21018F   22226.64938233  .00000572  00000-0  57304-4 0  9990","REF_FRAME":"TEME","OBJECT_ID":"2021-018F","PERIOD":"95.592","ECCENTRICITY":"0.00014540","COUNTRY_CODE":"US","GP_ID":"210231382","APOAPSIS":"548.224","REV_AT_EPOCH":"8048","EPOCH":"2022-08-14T15:35:06.633312","MEAN_ANOMALY":"290.1460"},{"OBJECT_TYPE":"PAYLOAD","SITE":"AFETR","EPHEMERIS_TYPE":"0","DECAY_DATE":null,"MEAN_MOTION":"15.06400133","TIME_SYSTEM":"UTC","LAUNCH_DATE":"2021-03-11","RCS_SIZE":"LARGE","ARG_OF_PERICENTER":"75.5937","FILE":"3536615","RA_OF_ASC_NODE":"320.8417","CLASSIFICATION_TYPE":"U","PERIAPSIS":"546.487","MEAN_MOTION_DOT":"0.00000042","OBJECT_NAME":"STARLINK-2338","TLE_LINE2":"2 47793  53.0558 320.8417 0001048  75.5937 284.5168 15.06400133 80489","MEAN_ELEMENT_THEORY":"SGP4","MEAN_MOTION_DDOT":"0.0000000000000","BSTAR":"0.00002169300000","SEMIMAJOR_AXIS":"6925.348","ELEMENT_SET_NO":"999","INCLINATION":"53.0558","CENTER_NAME":"EARTH","NORAD_CAT_ID":"47793","OBJECT_ID":"2021-018G","PERIOD":"95.592","REF_FRAME":"TEME","TLE_LINE1":"1 47793U 21018G   22226.73047414  .00000042  00000-0  21693-4 0  9997","EPOCH":"2022-08-14T17:31:52.965696","MEAN_ANOMALY":"284.5168","APOAPSIS":"547.939","REV_AT_EPOCH":"8048","GP_ID":"210231632","ECCENTRICITY":"0.00010480","COUNTRY_CODE":"US"}];
